OBJECT_NAME,OBJECT_ID,EPOCH,MEAN_MOTION,ECCENTRICITY,INCLINATION,RA_OF_ASC_NODE,ARG_OF_PERICENTER,MEAN_ANOMALY,EPHEMERIS_TYPE,CLASSIFICATION_TYPE,NORAD_CAT_ID,ELEMENT_SET_NO,REV_AT_EPOCH,BSTAR,MEAN_MOTION_DOT,MEAN_MOTION_DDOT
SKYSAT-C1,2016-040C,2026-06-26T00:13:04.045440,15.36441709,.00026289,96.9565,208.2510,39.9712,320.1726,0,U,41601,999,55922,.29477632E-3,.10408E-3,0
LAPAN-A3,2016-040E,2026-06-26T06:19:23.427840,15.33160236,.00097289,97.1488,173.1109,354.2184,5.8945,0,U,41603,999,55620,.12777044E-3,.4023E-4,0
GAOFEN-3,2016-049A,2026-06-26T07:28:12.101088,14.42216615,.00015921,98.4014,184.9595,97.3365,262.8006,0,U,41727,999,51996,.48440988E-4,.116E-5,0
SKYSAT-C4,2016-058B,2026-06-26T07:31:06.409632,15.48863181,.00020475,96.9173,198.7036,140.2320,219.9082,0,U,41771,999,54688,.34533913E-3,.1853E-3,0
SKYSAT-C5,2016-058C,2026-06-26T02:28:03.407808,15.34589464,.00011542,97.0470,217.3453,225.8248,134.2902,0,U,41772,999,54511,.258768E-3,.8599E-4,0
SKYSAT-C2,2016-058D,2026-06-26T00:27:29.193696,15.42261578,.0003924,97.0169,198.7820,51.2857,308.8741,0,U,41773,999,54641,.3259561E-3,.13945E-3,0
SKYSAT-C3,2016-058E,2026-06-25T14:03:43.050816,15.52881901,.00012589,96.9009,207.1097,117.9292,242.2090,0,U,41774,999,54741,.43483814E-3,.26959E-3,0
ALSAT-1B,2016-059C,2026-06-26T06:42:10.959264,14.72282151,.0008825,97.7753,185.6508,187.9692,172.1378,0,U,41785,999,52191,.11068473E-3,.652E-5,0
PATHFINDER 1,2016-059E,2026-06-25T23:59:17.019456,14.67672091,.00285363,97.8166,175.8781,175.2089,184.9395,0,U,41787,999,52100,.10328173E-3,.544E-5,0
SCATSAT 1,2016-059H,2026-06-25T16:00:30.909024,14.79542742,.00537709,98.1188,240.5207,219.5991,140.1288,0,U,41790,999,10284,.15703462E-3,.1146E-4,0
GOKTURK 1A,2016-073A,2026-06-26T06:36:04.179168,14.62780345,.00014208,98.1244,71.8068,76.8838,283.2522,0,U,41875,999,51015,.83319245E-4,.378E-5,0
RESOURCESAT-2A,2016-074A,2026-06-26T06:58:49.122912,14.21618536,.00032177,98.7526,250.7209,66.5085,293.6430,0,U,41877,999,49559,-.19036736E-4,-.86E-6,0
CARTOSAT-2D,2017-008A,2026-06-26T07:31:35.790816,15.19272132,.00046132,97.4104,236.4493,197.2353,162.8726,0,U,41948,999,51896,.25166482E-3,.5241E-4,0
SENTINEL-2B,2017-013A,2026-06-26T07:09:41.500800,14.30819312,.00011856,98.5690,251.9444,87.5506,272.5812,0,U,42063,999,48594,.36965281E-4,.53E-6,0
CARTOSAT-2E,2017-036C,2026-06-26T06:22:11.730720,15.19230639,.00021687,97.4273,236.9184,277.0165,83.0823,0,U,42767,999,49952,.18639637E-3,.3858E-4,0
FORMOSAT-5,2017-049A,2026-06-26T05:24:01.180224,14.50901798,.00124576,98.2252,252.3340,59.2531,300.9889,0,U,42920,999,46798,.46224597E-4,.139E-5,0
SENTINEL-5P,2017-064A,2026-06-26T07:04:10.912800,14.19520358,.00010337,98.7925,119.3612,90.0606,270.0689,0,U,42969,999,45085,.36825068E-4,.33E-6,0
SKYSAT-C11,2017-068A,2026-06-25T22:04:58.607328,15.58327902,.00004849,97.4352,326.1337,126.6311,233.4989,0,U,42987,999,48460,.39213999E-3,.2969E-3,0
SKYSAT-C10,2017-068B,2026-06-26T06:57:46.859616,15.34782567,.00011457,97.4509,314.2270,104.9543,255.1827,0,U,42988,999,48375,.29268616E-3,.979E-4,0
SKYSAT-C9,2017-068C,2026-06-25T22:28:39.617760,15.41765303,.0009577,97.4429,314.8886,105.8215,254.4089,0,U,42989,999,48410,.34895213E-3,.14703E-3,0
SKYSAT-C8,2017-068D,2026-06-25T22:07:49.071072,15.37136157,.00013566,97.4526,313.6885,95.4716,264.6683,0,U,42990,999,48365,.33861291E-3,.12232E-3,0
SKYSAT-C7,2017-068E,2026-06-26T07:21:29.308608,15.37098021,.0007077,97.4536,315.0681,80.1308,280.0735,0,U,42991,999,48377,.32136315E-3,.11598E-3,0
SKYSAT-C6,2017-068F,2026-06-25T22:50:47.268672,15.34104853,.00051596,97.4571,314.6448,126.8739,233.2977,0,U,42992,999,48366,.31392008E-3,.10287E-3,0
CARTOSAT-2F,2018-004A,2026-06-26T07:08:42.264960,15.19281349,.00015571,97.4790,236.8434,171.8471,188.2790,0,U,43111,999,46871,.20707281E-3,.43E-4,0
GAOFEN-1 02,2018-031A,2026-06-26T07:29:24.879264,14.76418687,.00030134,98.0526,239.8136,8.2227,351.9031,0,U,43259,999,44404,.60800316E-4,.371E-5,0
GAOFEN-1 03,2018-031B,2026-06-26T06:57:47.587968,14.76436895,.00036359,98.0514,239.6494,60.7480,299.4093,0,U,43260,999,44403,.23719505E-4,.113E-5,0
GAOFEN-1 04,2018-031D,2026-06-26T06:22:57.724032,14.76445336,.00020133,98.0527,239.8169,66.4582,293.6839,0,U,43262,999,44402,.11055978E-3,.717E-5,0
SENTINEL-3B,2018-039A,2026-06-26T03:59:31.591968,14.26737139,.00007457,98.6245,244.5698,106.5994,253.5269,0,U,43437,999,42540,.59425605E-4,.1E-5,0
GAOFEN-5 01,2018-043A,2026-06-26T04:08:58.010496,14.60611347,.00029184,98.4574,148.9479,67.8367,292.3142,0,U,43461,999,43300,.79856867E-4,.339E-5,0
GAOFEN-6,2018-048A,2026-06-25T19:30:44.521056,14.76423510,.00117023,98.0567,239.4730,138.2343,221.9762,0,U,43484,999,43466,.48573015E-4,.286E-5,0
