SKYSAT-C1               
1 41601U 16040C   26177.00907460  .00010408  00000+0  29478-3 0  9997
2 41601  96.9565 208.2510 0002628  39.9712 320.1726 15.36441709559225
LAPAN-A3                
1 41603U 16040E   26177.26346560  .00004023  00000+0  12777-3 0  9995
2 41603  97.1488 173.1109 0009728 354.2184   5.8945 15.33160236556207
GAOFEN-3                
1 41727U 16049A   26177.31125117  .00000116  00000+0  48441-4 0  9997
2 41727  98.4014 184.9595 0001592  97.3365 262.8006 14.42216615519966
SKYSAT-C4               
1 41771U 16058B   26177.31326863  .00018530  00000+0  34534-3 0  9993
2 41771  96.9173 198.7036 0002047 140.2320 219.9082 15.48863181546883
SKYSAT-C5               
1 41772U 16058C   26177.10281722  .00008599  00000+0  25877-3 0  9999
2 41772  97.0470 217.3453 0001154 225.8248 134.2902 15.34589464545113
SKYSAT-C2               
1 41773U 16058D   26177.01908789  .00013945  00000+0  32596-3 0  9996
2 41773  97.0169 198.7820 0003924  51.2857 308.8741 15.42261578546419
SKYSAT-C3               
1 41774U 16058E   26176.58591494  .00026959  00000+0  43484-3 0  9996
2 41774  96.9009 207.1097 0001258 117.9292 242.2090 15.52881901547411
ALSAT-1B                
1 41785U 16059C   26177.27929351  .00000652  00000+0  11068-3 0  9998
2 41785  97.7753 185.6508 0008825 187.9692 172.1378 14.72282151521913
PATHFINDER 1            
1 41787U 16059E   26176.99950254  .00000544  00000+0  10328-3 0  9992
2 41787  97.8166 175.8781 0028536 175.2089 184.9395 14.67672091521009
SCATSAT 1               
1 41790U 16059H   26176.66702441  .00001146  00000+0  15703-3 0  9994
2 41790  98.1188 240.5207 0053770 219.5991 140.1288 14.79542742102840
GOKTURK 1A              
1 41875U 16073A   26177.27504837  .00000378  00000+0  83319-4 0  9996
2 41875  98.1244  71.8068 0001420  76.8838 283.2522 14.62780345510158
RESOURCESAT-2A          
1 41877U 16074A   26177.29084633 -.00000086  00000+0 -19037-4 0  9992
2 41877  98.7526 250.7209 0003217  66.5085 293.6430 14.21618536495590
CARTOSAT-2D             
1 41948U 17008A   26177.31360869  .00005241  00000+0  25166-3 0  9995
2 41948  97.4104 236.4493 0004613 197.2353 162.8726 15.19272132518962
SENTINEL-2B             
1 42063U 17013A   26177.29839700  .00000053  00000+0  36965-4 0  9998
2 42063  98.5690 251.9444 0001185  87.5506 272.5812 14.30819312485948
CARTOSAT-2E             
1 42767U 17036C   26177.26541355  .00003858  00000+0  18640-3 0  9992
2 42767  97.4273 236.9184 0002168 277.0165  83.0823 15.19230639499520
FORMOSAT-5              
1 42920U 17049A   26177.22501366  .00000139  00000+0  46225-4 0  9991
2 42920  98.2252 252.3340 0012457  59.2531 300.9889 14.50901798467985
SENTINEL-5P             
1 42969U 17064A   26177.29457075  .00000033  00000+0  36825-4 0  9993
2 42969  98.7925 119.3612 0001033  90.0606 270.0689 14.19520358450855
SKYSAT-C11              
1 42987U 17068A   26176.92012277  .00029690  00000+0  39214-3 0  9991
2 42987  97.4352 326.1337 0000484 126.6311 233.4989 15.58327902484605
SKYSAT-C10              
1 42988U 17068B   26177.29012569  .00009790  00000+0  29269-3 0  9995
2 42988  97.4509 314.2270 0001145 104.9543 255.1827 15.34782567483758
SKYSAT-C9               
1 42989U 17068C   26176.93656965  .00014703  00000+0  34895-3 0  9991
2 42989  97.4429 314.8886 0009577 105.8215 254.4089 15.41765303484101
SKYSAT-C8               
1 42990U 17068D   26176.92209573  .00012232  00000+0  33861-3 0  9998
2 42990  97.4526 313.6885 0001356  95.4716 264.6683 15.37136157483650
SKYSAT-C7               
1 42991U 17068E   26177.30658922  .00011598  00000+0  32136-3 0  9996
2 42991  97.4536 315.0681 0007077  80.1308 280.0735 15.37098021483776
SKYSAT-C6               
1 42992U 17068F   26176.95193598  .00010287  00000+0  31392-3 0  9997
2 42992  97.4571 314.6448 0005159 126.8739 233.2977 15.34104853483661
CARTOSAT-2F             
1 43111U 18004A   26177.29771140  .00004300  00000+0  20707-3 0  9992
2 43111  97.4790 236.8434 0001557 171.8471 188.2790 15.19281349468719
GAOFEN-1 02             
1 43259U 18031A   26177.31209351  .00000371  00000+0  60800-4 0  9991
2 43259  98.0526 239.8136 0003013   8.2227 351.9031 14.76418687444045
GAOFEN-1 03             
1 43260U 18031B   26177.29013412  .00000113  00000+0  23720-4 0  9995
2 43260  98.0514 239.6494 0003635  60.7480 299.4093 14.76436895444037
GAOFEN-1 04             
1 43262U 18031D   26177.26594588  .00000717  00000+0  11056-3 0  9990
2 43262  98.0527 239.8169 0002013  66.4582 293.6839 14.76445336444022
SENTINEL-3B             
1 43437U 18039A   26177.16633787  .00000100  00000+0  59426-4 0  9996
2 43437  98.6245 244.5698 0000745 106.5994 253.5269 14.26737139425405
GAOFEN-5 01             
1 43461U 18043A   26177.17289364  .00000339  00000+0  79857-4 0  9991
2 43461  98.4574 148.9479 0002918  67.8367 292.3142 14.60611347433002
GAOFEN-6                
1 43484U 18048A   26176.81301529  .00000286  00000+0  48573-4 0  9991
2 43484  98.0567 239.4730 0011702 138.2343 221.9762 14.76423510434668
